STARLINK-1008
1 44713U 19074B   25091.50000000  .00001201  00000-0  00009-4 0  9991
2 44713  53.0543 000.0000 0001421  76.2878 000.0000 15.05692737 9652
STARLINK-1009
1 44714U 19074C   25091.50000000  .00001202  00000-0  00010-4 0  9992
2 44714  53.0543 018.0000 0001421  76.2878 036.0000 15.05692737 9653
STARLINK-1010
1 44715U 19074D   25091.50000000  .00001203  00000-0  00011-4 0  9993
2 44715  53.0543 036.0000 0001421  76.2878 072.0000 15.05692737 9654
STARLINK-1011
1 44716U 19074E   25091.50000000  .00001204  00000-0  00012-4 0  9994
2 44716  53.0543 054.0000 0001421  76.2878 108.0000 15.05692737 9655
STARLINK-1012
1 44717U 19074F   25091.50000000  .00001205  00000-0  00009-4 0  9995
2 44717  53.0543 072.0000 0001421  76.2878 144.0000 15.05692737 9656
STARLINK-1013
1 44718U 19074G   25091.50000000  .00001206  00000-0  00010-4 0  9996
2 44718  53.0543 090.0000 0001421  76.2878 180.0000 15.05692737 9657
STARLINK-1014
1 44719U 19074H   25091.50000000  .00001207  00000-0  00011-4 0  9997
2 44719  53.0543 108.0000 0001421  76.2878 216.0000 15.05692737 9658
STARLINK-1015
1 44720U 19074I   25091.50000000  .00001208  00000-0  00012-4 0  9998
2 44720  53.0543 126.0000 0001421  76.2878 252.0000 15.05692737 9659
STARLINK-1016
1 44721U 19074J   25091.50000000  .00001209  00000-0  00009-4 0  9999
2 44721  53.0543 144.0000 0001421  76.2878 288.0000 15.05692737 9660
STARLINK-1017
1 44722U 19074K   25091.50000000  .00001210  00000-0  00010-4 0  9990
2 44722  53.0543 162.0000 0001421  76.2878 324.0000 15.05692737 9661
STARLINK-1018
1 44723U 19074L   25091.50000000  .00001211  00000-0  00011-4 0  9991
2 44723  53.0543 180.0000 0001421  76.2878 000.0000 15.05692737 9662
STARLINK-1019
1 44724U 19074M   25091.50000000  .00001212  00000-0  00012-4 0  9992
2 44724  53.0543 198.0000 0001421  76.2878 036.0000 15.05692737 9663
STARLINK-1020
1 44725U 19074N   25091.50000000  .00001213  00000-0  00009-4 0  9993
2 44725  53.0543 216.0000 0001421  76.2878 072.0000 15.05692737 9664
STARLINK-1021
1 44726U 19074O   25091.50000000  .00001214  00000-0  00010-4 0  9994
2 44726  53.0543 234.0000 0001421  76.2878 108.0000 15.05692737 9665
STARLINK-1022
1 44727U 19074P   25091.50000000  .00001215  00000-0  00011-4 0  9995
2 44727  53.0543 252.0000 0001421  76.2878 144.0000 15.05692737 9666
STARLINK-1023
1 44728U 19074Q   25091.50000000  .00001216  00000-0  00012-4 0  9996
2 44728  53.0543 270.0000 0001421  76.2878 180.0000 15.05692737 9667
STARLINK-1024
1 44729U 19074R   25091.50000000  .00001217  00000-0  00009-4 0  9997
2 44729  53.0543 288.0000 0001421  76.2878 216.0000 15.05692737 9668
STARLINK-1025
1 44730U 19074S   25091.50000000  .00001218  00000-0  00010-4 0  9998
2 44730  53.0543 306.0000 0001421  76.2878 252.0000 15.05692737 9669
STARLINK-1026
1 44731U 19074T   25091.50000000  .00001219  00000-0  00011-4 0  9999
2 44731  53.0543 324.0000 0001421  76.2878 288.0000 15.05692737 9670
STARLINK-1027
1 44732U 19074U   25091.50000000  .00001220  00000-0  00012-4 0  9990
2 44732  53.0543 342.0000 0001421  76.2878 324.0000 15.05692737 9671
STARLINK-2021
1 44733U 20042V   25091.50000000  .00001171  00000-0  00010-4 0  9991
2 44733  70.0000 000.0000 0001200  82.1234 000.0000 14.98000000 8041
STARLINK-2022
1 44734U 20042W   25091.50000000  .00001172  00000-0  00008-4 0  9992
2 44734  70.0000 045.0000 0001200  82.1234 067.5000 14.98000000 8042
STARLINK-2023
1 44735U 20042X   25091.50000000  .00001173  00000-0  00009-4 0  9993
2 44735  70.0000 090.0000 0001200  82.1234 135.0000 14.98000000 8043
STARLINK-2024
1 44736U 20042Y   25091.50000000  .00001174  00000-0  00010-4 0  9994
2 44736  70.0000 135.0000 0001200  82.1234 202.5000 14.98000000 8044
STARLINK-2025
1 44737U 20042Z   25091.50000000  .00001175  00000-0  00008-4 0  9995
2 44737  70.0000 180.0000 0001200  82.1234 270.0000 14.98000000 8045
STARLINK-2026
1 44738U 20042A   25091.50000000  .00001176  00000-0  00009-4 0  9996
2 44738  70.0000 225.0000 0001200  82.1234 337.5000 14.98000000 8046
STARLINK-2027
1 44739U 20042B   25091.50000000  .00001177  00000-0  00010-4 0  9997
2 44739  70.0000 270.0000 0001200  82.1234 045.0000 14.98000000 8047
STARLINK-2028
1 44740U 20042C   25091.50000000  .00001178  00000-0  00008-4 0  9998
2 44740  70.0000 315.0000 0001200  82.1234 112.5000 14.98000000 8048
STARLINK-3029
1 44741U 21080D   25091.50000000  .00001129  00000-0  12345-4 0  9999
2 44741  51.6435 000.0000 0001300  60.0000 000.0000 15.49202000 7159
STARLINK-3030
1 44742U 21080E   25091.50000000  .00001130  00000-0  12345-4 0  9990
2 44742  51.6435 060.0000 0001300  60.0000 120.0000 15.49202000 7160
STARLINK-3031
1 44743U 21080F   25091.50000000  .00001131  00000-0  12345-4 0  9991
2 44743  51.6435 120.0000 0001300  60.0000 240.0000 15.49202000 7161
